NORAD_CAT_ID,OBJECT_NAME,OBJECT_TYPE,EPOCH,MEAN_MOTION,ECCENTRICITY,INCLINATION,RA_OF_ASC_NODE,ARG_OF_PERICENTER,MEAN_ANOMALY,BSTAR,MEAN_MOTION_DOT,MEAN_MOTION_DDOT,TLE_LINE0,TLE_LINE1,TLE_LINE2,SEMIMAJOR_AXIS,PERIOD,APOGEE,PERIGEE,DECAYED
51980.0,STARLINK-3649,PAYLOAD,2022-08-18 06:00:02,15.088436800000002,0.0001476,53.2154,112.5234,61.617,18.2601,0.00015448,2.172e-05,0.0,0 STARLINK-3649,1 51980U 22025AA  22230.25002315  .00002172  00000-0  15448-3 0  9998,2 51980  53.2154 112.5234 0001476  61.6170  18.2601 15.08843680 25976,6917.869000000002,95.437,540.755,538.7130000000002,0.0
51980.0,STARLINK-3649,PAYLOAD,2022-08-18 14:00:01,15.08821871,0.0001375999999999,53.2156,111.0256,71.9383,19.4776,0.0031267,0.000498,0.0,0 STARLINK-3649,1 51980U 22025AA  22230.58334491  .00049800  00000-0  31267-2 0  9992,2 51980  53.2156 111.0256 0001376  71.9383  19.4776 15.08821871  1300,6917.936,95.439,540.753,538.849,0.0
51980.0,STARLINK-3649,PAYLOAD,2022-08-18 22:00:00,15.08863403,0.0001468,53.2156,109.5309,65.9735,37.0365,-0.0017875,-0.00028642,0.0,0 STARLINK-3649,1 51980U 22025AA  22230.91667824 -.00028642  00000-0 -17875-2 0  9990,2 51980  53.2156 109.5309 0001468  65.9735  37.0365 15.08863403  1304,6917.809,95.436,540.689,538.658,0.0
51980.0,STARLINK-3649,PAYLOAD,2022-08-19 12:00:00,15.08796806,0.0001351999999999,53.2155,106.9107,72.7197,320.6196,0.0019986,0.00031625,0.0,0 STARLINK-3649,1 51980U 22025AA  22231.50001157  .00031625  00000-0  19986-2 0  9995,2 51980  53.2155 106.9107 0001352  72.7197 320.6196 15.08796806 26166,6918.012,95.44,540.813,538.942,0.0
51980.0,STARLINK-3649,PAYLOAD,2022-08-19 14:00:01,15.08797739,0.0001402,53.2155,106.5365,74.5883,51.6396,0.002417,0.00038344,0.0,0 STARLINK-3649,1 51980U 22025AA  22231.58334491  .00038344  00000-0  24170-2 0  9999,2 51980  53.2155 106.5365 0001402  74.5883  51.6396 15.08797739  1304,6918.01,95.44,540.844,538.905,0.0
51980.0,STARLINK-3649,PAYLOAD,2022-08-19 22:00:00,15.08818843,0.0001519,53.2154,105.0419,68.1104,69.6737,-0.00073581,-0.00011972,0.0,0 STARLINK-3649,1 51980U 22025AA  22231.91667824 -.00011972  00000-0 -73581-3 0  9996,2 51980  53.2154 105.0419 0001519  68.1104  69.6737 15.08818843  1309,6917.945,95.439,540.861,538.759,0.0
51980.0,STARLINK-3649,PAYLOAD,2022-08-20 04:00:00,15.08811179,0.0001503,53.2151,103.9198,63.977,352.4803,0.0014371,0.00022639,0.0,0 STARLINK-3649,1 51980U 22025AA  22232.16667824  .00022639  00000-0  14371-2 0  9995,2 51980  53.2151 103.9198 0001503  63.9770 352.4803 15.08811179 26266,6917.968000000003,95.439,540.873,538.794,0.0
51980.0,STARLINK-3649,PAYLOAD,2022-08-20 14:00:01,15.08814613,0.0001448,53.2153,102.0477,76.1591,84.7684,0.0024031999999999,0.0003813999999999,0.0,0 STARLINK-3649,1 51980U 22025AA  22232.58334491  .00038140  00000-0  24032-2 0  9991,2 51980  53.2153 102.0477 0001448  76.1591  84.7684 15.08814613  1309,6917.958000000001,95.439,540.825,538.821,0.0
51980.0,STARLINK-3649,PAYLOAD,2022-08-20 22:00:00,15.08835952,0.0001553,53.2152,100.5531,68.6627,103.8472,-0.00028785,-4.866e-05,0.0,0 STARLINK-3649,1 51980U 22025AA  22232.91667824 -.00004866  00000-0 -28785-3 0  9997,2 51980  53.2152 100.5531 0001553  68.6627 103.8472 15.08835952  1302,6917.893,95.438,540.832,538.683,0.0
51980.0,STARLINK-3649,PAYLOAD,2022-08-21 04:00:00,15.08831962,0.0001538,53.215,99.4308,64.8696,26.3252,0.00087166,0.00013609,0.0,0 STARLINK-3649,1 51980U 22025AA  22233.16667824  .00013609  00000-0  87166-3 0  9996,2 51980  53.2150  99.4308 0001538  64.8696  26.3252 15.08831962 26416,6917.905,95.438,540.8340000000002,538.706,0.0
51980.0,STARLINK-3649,PAYLOAD,2022-08-21 14:00:01,15.08843174,0.0001554999999999,53.2152,97.5586,76.6824,119.0035,-0.0005117,-8.423e-05,0.0,0 STARLINK-3649,1 51980U 22025AA  22233.58334491 -.00008423  00000-0 -51170-3 0  9999,2 51980  53.2152  97.5586 0001555  76.6824 119.0035 15.08843174  1306,6917.871,95.437,540.811,538.66,0.0
51980.0,STARLINK-3649,PAYLOAD,2022-08-21 20:00:01,15.08840298,0.0001669,53.2152,96.4377,71.5974,42.788,-0.0023326,-0.0003722,0.0,0 STARLINK-3649,1 51980U 22025AA  22233.83334491 -.00037220  00000-0 -23326-2 0  9995,2 51980  53.2152  96.4377 0001669  71.5974  42.7880 15.08840298 26523,6917.879,95.438,540.899,538.59,0.0
51980.0,STARLINK-3649,PAYLOAD,2022-08-21 22:00:00,15.08819266,0.0001725,53.2152,96.064,69.7039,137.5833,-1.888e-05,-5.88e-06,0.0,0 STARLINK-3649,1 51980U 22025AA  22233.91667824 -.00000588  00000-0 -18880-4 0  9991,2 51980  53.2152  96.0640 0001725  69.7039 137.5833 15.08819266  1307,6917.944,95.439,541.002,538.615,0.0
51980.0,STARLINK-3649,PAYLOAD,2022-08-22 12:00:00,15.0880927,0.0001631,53.2154,93.4436,75.2379,62.3101,0.0027645,0.00043947,0.0,0 STARLINK-3649,1 51980U 22025AA  22234.50001157  .00043947  00000-0  27645-2 0  9999,2 51980  53.2154  93.4436 0001631  75.2379  62.3101 15.08809270  1305,6917.974,95.439,540.9680000000002,538.711,0.0
51980.0,STARLINK-3649,PAYLOAD,2022-08-22 22:00:00,15.088297400000002,0.0001797,53.2155,91.575,69.1691,172.8549,0.00022791,3.34e-05,0.0,0 STARLINK-3649,1 51980U 22025AA  22234.91667824  .00003340  00000-0  22791-3 0  9994,2 51980  53.2155  91.5750 0001797  69.1691 172.8549 15.08829740  1303,6917.9119999999975,95.438,541.02,538.534,0.0
51980.0,STARLINK-3649,PAYLOAD,2022-08-23 04:00:00,15.08842691,0.0001763,53.2155,90.4524,67.5257,93.1836,-0.00020808,-3.598e-05,0.0,0 STARLINK-3649,1 51980U 22025AA  22235.16667824 -.00003598  00000-0 -20808-3 0  9996,2 51980  53.2155  90.4524 0001763  67.5257  93.1836 15.08842691 26720,6917.871999999999,95.437,540.957,538.518,0.0
51980.0,STARLINK-3649,PAYLOAD,2022-08-23 14:00:01,15.08836944,0.0001742,53.2159,88.5804,76.8058,188.3983,0.0015589,0.00024607,0.0,0 STARLINK-3649,1 51980U 22025AA  22235.58334491  .00024607  00000-0  15589-2 0  9994,2 51980  53.2159  88.5804 0001742  76.8058 188.3983 15.08836944  1303,6917.89,95.438,540.96,538.55,0.0
51980.0,STARLINK-3649,PAYLOAD,2022-08-23 22:00:01,15.08839231,0.0001855,53.216,87.0857,69.3484,207.522,0.00047587,7.293e-05,0.0,0 STARLINK-3649,1 51980U 22025AA  22235.91668981  .00007293  00000-0  47587-3 0  9991,2 51980  53.2160  87.0857 0001855  69.3484 207.5220 15.08839231  1302,6917.8830000000025,95.438,541.031,538.464,0.0
51980.0,STARLINK-3649,PAYLOAD,2022-08-24 06:00:00,15.08867056,0.0001761999999999,53.216,85.5885,70.8537,217.5487,-0.0022625,-0.00036143,0.0,0 STARLINK-3649,1 51980U 22025AA  22236.25001157 -.00036143  00000-0 -22625-2 0  9998,2 51980  53.2160  85.5885 0001762  70.8537 217.5487 15.08867056 26881,6917.7980000000025,95.436,540.882,538.444,0.0
51980.0,STARLINK-3649,PAYLOAD,2022-08-24 14:00:01,15.08858526,0.0001736,53.2163,84.0912,77.7071,222.305,-0.00026323,-4.477e-05,0.0,0 STARLINK-3649,1 51980U 22025AA  22236.58334491 -.00004477  00000-0 -26323-3 0  9999,2 51980  53.2163  84.0912 0001736  77.7071 222.3050 15.08858526  1301,6917.824000000001,95.436,540.89,538.488,0.0
51980.0,STARLINK-3649,PAYLOAD,2022-08-24 20:00:01,15.08855283,0.0001759,53.2161,82.9703,70.752,147.9757,-0.0029101999999999,-0.00046326,0.0,0 STARLINK-3649,1 51980U 22025AA  22236.83334491 -.00046326  00000-0 -29102-2 0  9993,2 51980  53.2161  82.9703 0001759  70.7520 147.9757 15.08855283 26974,6917.834,95.437,540.9159999999998,538.482,0.0
51980.0,STARLINK-3649,PAYLOAD,2022-08-24 22:00:00,15.08830211,0.0001783,53.2162,82.5965,69.1888,242.4454,-0.00010833,-2.011e-05,0.0,0 STARLINK-3649,1 51980U 22025AA  22236.91667824 -.00002011  00000-0 -10833-3 0  9996,2 51980  53.2162  82.5965 0001783  69.1888 242.4454 15.08830211  1306,6917.91,95.438,541.009,538.5419999999998,0.0
51980.0,STARLINK-3649,PAYLOAD,2022-08-25 14:00:01,15.088370499999998,0.0001648,53.2163,79.602,78.5923,256.2099,0.00088033,0.00013749,0.0,0 STARLINK-3649,1 51980U 22025AA  22237.58334491  .00013749  00000-0  88033-3 0  9996,2 51980  53.2163  79.6020 0001648  78.5923 256.2099 15.08837050 27089,6917.889,95.438,540.894,538.614,0.0
51980.0,STARLINK-3649,PAYLOAD,2022-08-25 22:00:00,15.08829166,0.0001740999999999,53.2161,78.1073,70.5183,275.8826,0.00094932,0.00014848,0.0,0 STARLINK-3649,1 51980U 22025AA  22237.91667824  .00014848  00000-0  94932-3 0  9998,2 51980  53.2161  78.1073 0001741  70.5183 275.8826 15.08829166  1304,6917.9140000000025,95.438,540.9830000000002,538.5740000000002,0.0
51980.0,STARLINK-3649,PAYLOAD,2022-08-26 12:00:00,15.08829886,0.0001617,53.2158,75.4864,80.3182,196.3734,0.0021491999999999,0.00034073,0.0,0 STARLINK-3649,1 51980U 22025AA  22238.50001157  .00034073  00000-0  21492-2 0  9997,2 51980  53.2158  75.4864 0001617  80.3182 196.3734 15.08829886 27221,6917.911,95.438,540.895,538.658,0.0
51980.0,STARLINK-3649,PAYLOAD,2022-08-26 14:00:01,15.08848915,0.0001631,53.216,75.1127,80.5357,289.1112,0.00033108,4.986e-05,0.0,0 STARLINK-3649,1 51980U 22025AA  22238.58335648  .00004986  00000-0  33108-3 0  9998,2 51980  53.2160  75.1127 0001631  80.5357 289.1112 15.08848915  1301,6917.853,95.437,540.846,538.59,0.0
51980.0,STARLINK-3649,PAYLOAD,2022-08-26 22:00:00,15.08834244,0.0001710999999999,53.2157,73.6179,72.6228,308.572,0.001266,0.00019915,0.0,0 STARLINK-3649,1 51980U 22025AA  22238.91667824  .00019915  00000-0  12660-2 0  9996,2 51980  53.2157  73.6179 0001711  72.6228 308.5720 15.08834244  1306,6917.898,95.438,540.947,538.5790000000002,0.0
51980.0,STARLINK-3649,PAYLOAD,2022-08-27 14:00:01,15.08860691,0.0001564,53.2155,70.6233,81.8209,322.5764,-0.0026351,-0.00042005,0.0,0 STARLINK-3649,1 51980U 22025AA  22239.58334491 -.00042005  00000-0 -26351-2 0  9991,2 51980  53.2155  70.6233 0001564  81.8209 322.5764 15.08860691  1308,6917.816999999999,95.436,540.764,538.6,0.0
51980.0,STARLINK-3649,PAYLOAD,2022-08-27 22:00:00,15.08812751,0.0001578,53.2153,69.1285,72.9473,343.0572,0.0017652999999999,0.00027897,0.0,0 STARLINK-3649,1 51980U 22025AA  22239.91667824  .00027897  00000-0  17653-2 0  9992,2 51980  53.2153  69.1285 0001578  72.9473 343.0572 15.08812751  1304,6917.964,95.439,540.92,538.737,0.0
